[{"OBJECT_NAME":"STARLINK-1338","OBJECT_ID":"2020-025B","EPOCH":"2026-03-10T00:00:02.999808","MEAN_MOTION":15.54826555,"ECCENTRICITY":0.00050355,"INCLINATION":53.0494,"RA_OF_ASC_NODE":83.2278,"ARG_OF_PERICENTER":6.9881,"MEAN_ANOMALY":220.584,"EPHEMERIS_TYPE":0,"CLASSIFICATION_TYPE":"U","NORAD_CAT_ID":45532,"ELEMENT_SET_NO":999,"REV_AT_EPOCH":592,"BSTAR":0.002182303,"MEAN_MOTION_DOT":0.00150413,"MEAN_MOTION_DDOT":0},{"OBJECT_NAME":"OBJECT Q","OBJECT_ID":"2018-099Q","EPOCH":"2026-03-09T10:49:11.167680","MEAN_MOTION":15.57553026,"ECCENTRICITY":0.00029382,"INCLINATION":97.4297,"RA_OF_ASC_NODE":143.8326,"ARG_OF_PERICENTER":208.2257,"MEAN_ANOMALY":151.8839,"EPHEMERIS_TYPE":0,"CLASSIFICATION_TYPE":"U","NORAD_CAT_ID":43772,"ELEMENT_SET_NO":999,"REV_AT_EPOCH":39901,"BSTAR":0.0013586873,"MEAN_MOTION_DOT":0.00101095,"MEAN_MOTION_DDOT":0}]
